{
    "links": {
        "self": "http://www.neowsapp.com/rest/v1/neo/3478353?api_key=iIulBulltgU6a56xZRHN4H3l9WmuAYTsLGpBGhQ2"
    },
    "id": "3478353",
    "neo_reference_id": "3478353",
    "name": "(2009 WS52)",
    "designation": "2009 WS52",
    "nasa_jpl_url": "http://ssd.jpl.nasa.gov/sbdb.cgi?sstr=3478353",
    "absolute_magnitude_h": 23.5,
    "estimated_diameter": {
        "kilometers": {
            "estimated_diameter_min": 0.0530340723,
            "estimated_diameter_max": 0.1185877909
        },
        "meters": {
            "estimated_diameter_min": 53.0340723319,
            "estimated_diameter_max": 118.5877908577
        },
        "miles": {
            "estimated_diameter_min": 0.0329538346,
            "estimated_diameter_max": 0.0736870142
        },
        "feet": {
            "estimated_diameter_min": 173.9963058693,
            "estimated_diameter_max": 389.0675677576
        }
    },
    "is_potentially_hazardous_asteroid": false,
    "close_approach_data": [
        {
            "close_approach_date": "2009-11-19",
            "close_approach_date_full": "2009-Nov-19 08:38",
            "epoch_date_close_approach": 1258619880000,
            "relative_velocity": {
                "kilometers_per_second": "15.9917279586",
                "kilometers_per_hour": "57570.2206508214",
                "miles_per_hour": "35771.8962705062"
            },
            "miss_distance": {
                "astronomical": "0.1060682803",
                "lunar": "41.2605610367",
                "kilometers": "15867588.807442961",
                "miles": "9859662.4863204218"
            },
            "orbiting_body": "Earth"
        }
    ],
    "orbital_data": {
        "orbit_id": "7",
        "orbit_determination_date": "2017-04-06 08:58:58",
        "first_observation_date": "2009-11-23",
        "last_observation_date": "2009-11-24",
        "data_arc_in_days": 1,
        "observations_used": 12,
        "orbit_uncertainty": "9",
        "minimum_orbit_intersection": ".105472",
        "jupiter_tisserand_invariant": "3.881",
        "epoch_osculation": "2455158.5",
        "eccentricity": ".395293238877453",
        "semi_major_axis": "1.773530110589024",
        "inclination": "27.9423446027484",
        "ascending_node_longitude": "240.0210176752899",
        "orbital_period": "862.6930041170424",
        "perihelion_distance": "1.072465648927601",
        "perihelion_argument": "157.278756506959",
        "aphelion_distance": "2.474594572250446",
        "perihelion_time": "2455135.487241093158",
        "mean_anomaly": "9.60317652621087",
        "mean_motion": ".4172979243855772",
        "equinox": "J2000",
        "orbit_class": {
            "orbit_class_type": "AMO",
            "orbit_class_description": "Near-Earth asteroid orbits similar to that of 1221 Amor",
            "orbit_class_range": "1.017 AU < q (perihelion) < 1.3 AU"
        }
    },
    "is_sentry_object": false
}